NORAD_CAT_ID,OBJECT_NAME,OBJECT_TYPE,EPOCH,MEAN_MOTION,ECCENTRICITY,INCLINATION,RA_OF_ASC_NODE,ARG_OF_PERICENTER,MEAN_ANOMALY,BSTAR,MEAN_MOTION_DOT,MEAN_MOTION_DDOT,TLE_LINE0,TLE_LINE1,TLE_LINE2,SEMIMAJOR_AXIS,PERIOD,APOGEE,PERIGEE,DECAYED
53416.0,STARLINK-4480,PAYLOAD,2023-05-01 09:29:19,15.08839395,0.0001298,53.2155,117.5988,93.6344,266.4796,3.697e-05,3.01e-06,0.0,0 STARLINK-4480,1 53416U 22097AE  23121.39536963  .00000301  00000-0  36970-4 0  9995,2 53416  53.2155 117.5988 0001298  93.6344 266.4796 15.08839395 41129,6917.882,95.438,540.645,538.849,0.0
53416.0,STARLINK-4480,PAYLOAD,2023-05-02 09:20:06,15.08842856,0.0001336,53.2159,113.1384,99.1754,260.9389,3.238e-05,2.27e-06,0.0,0 STARLINK-4480,1 53416U 22097AE  23122.38896757  .00000227  00000-0  32380-4 0  9993,2 53416  53.2159 113.1384 0001336  99.1754 260.9389 15.08842856 40812,6917.872,95.437,540.661,538.812,0.0
53416.0,STARLINK-4480,PAYLOAD,2023-05-03 06:00:08,15.0883684,0.0001252,53.2151,109.2728,98.2846,261.8288,2.3601e-05,8.8e-07,0.0,0 STARLINK-4480,1 53416U 22097AE  23123.25009331  .00000088  00000-0  23601-4 0  9995,2 53416  53.2151 109.2728 0001252  98.2846 261.8288 15.08836840 40949,6917.89,95.438,540.621,538.889,0.0
53416.0,STARLINK-4480,PAYLOAD,2023-05-03 09:10:54,15.08837604,0.000126,53.2153,108.6782,98.668,261.4454,2.8927e-05,1.73e-06,0.0,0 STARLINK-4480,1 53416U 22097AE  23123.38257284  .00000173  00000-0  28927-4 0  9992,2 53416  53.2153 108.6782 0001260  98.6680 261.4454 15.08837604 41427,6917.888,95.438,540.624,538.881,0.0
53416.0,STARLINK-4480,PAYLOAD,2023-05-04 09:01:41,15.08837636,0.0001251,53.216,104.2184,98.0705,262.0429,8.7302e-06,-1.49e-06,0.0,0 STARLINK-4480,1 53416U 22097AE  23124.37617658 -.00000149  00000-0  87302-5 0  9994,2 53416  53.2160 104.2184 0001251  98.0705 262.0429 15.08837636 41115,6917.888,95.438,540.618,538.887,0.0
53416.0,STARLINK-4480,PAYLOAD,2023-05-04 21:44:46,15.08834681,0.0001212,53.216,101.8393,97.6345,262.4785,6.0839e-05,6.8e-06,0.0,0 STARLINK-4480,1 53416U 22097AE  23124.90609832  .00000680  00000-0  60839-4 0  9992,2 53416  53.2160 101.8393 0001212  97.6345 262.4785 15.08834681 41657,6917.897,95.438,540.6,538.923,0.0
53416.0,STARLINK-4480,PAYLOAD,2023-05-05 15:14:01,15.08836508,0.0001219,53.2167,98.5681,96.3176,263.7955,7.2129e-05,8.6e-06,0.0,0 STARLINK-4480,1 53416U 22097AE  23125.63473819  .00000860  00000-0  72129-4 0  9992,2 53416  53.2167  98.5681 0001219  96.3176 263.7955 15.08836508 41306,6917.891,95.438,540.599,538.913,0.0
53416.0,STARLINK-4480,PAYLOAD,2023-05-05 21:35:33,15.08887876,0.0001034,53.2164,97.3785,99.2659,260.845,-0.00057723,-9.475e-05,0.0,0 STARLINK-4480,1 53416U 22097AE  23125.89969540 -.00009475  00000-0 -57723-3 0  9996,2 53416  53.2164  97.3785 0001034  99.2659 260.8450 15.08887876 41805,6917.734,95.435,540.314,538.884,0.0
53416.0,STARLINK-4480,PAYLOAD,2023-05-06 05:32:29,15.08863838,9.75e-05,53.2162,95.8915,92.172,267.9383,-0.00030297,-5.109e-05,0.0,0 STARLINK-4480,1 53416U 22097AE  23126.23089482 -.00005109  00000-0 -30297-3 0  9990,2 53416  53.2162  95.8915 0000975  92.1720 267.9383 15.08863838 41394,6917.808,95.436,540.347,538.998,0.0
53416.0,STARLINK-4480,PAYLOAD,2023-05-07 03:47:53,15.08849281,9.88e-05,53.216,91.7275,85.5774,274.5331,6.8875e-05,8.09e-06,0.0,0 STARLINK-4480,1 53416U 22097AE  23127.15825307  .00000809  00000-0  68875-4 0  9990,2 53416  53.2160  91.7275 0000988  85.5774 274.5331 15.08849281 41534,6917.852,95.437,540.401,539.034,0.0
53416.0,STARLINK-4480,PAYLOAD,2023-05-08 03:38:41,15.08831594,0.0001122,53.216,87.2672,88.487,271.625,1.9396e-05,2.1e-07,0.0,0 STARLINK-4480,1 53416U 22097AE  23128.15186653  .00000021  00000-0  19396-4 0  9995,2 53416  53.2160  87.2672 0001122  88.4870 271.6250 15.08831594 41687,6917.906,95.438,540.547,538.995,0.0
53416.0,STARLINK-4480,PAYLOAD,2023-05-08 14:46:22,15.08839441,0.0001092,53.216,85.1863,89.0627,271.0491,3.8658e-05,3.27e-06,0.0,0 STARLINK-4480,1 53416U 22097AE  23128.61554130  .00000327  00000-0  38658-4 0  9996,2 53416  53.2160  85.1863 0001092  89.0627 271.0491 15.08839441 42219,6917.882,95.438,540.503,538.992,0.0
53416.0,STARLINK-4480,PAYLOAD,2023-05-09 03:29:27,15.0884707,0.0001218,53.2159,82.806,95.7837,264.3294,2.8229e-05,1.62e-06,0.0,0 STARLINK-4480,1 53416U 22097AE  23129.14545631  .00000162  00000-0  28229-4 0  9991,2 53416  53.2159  82.8060 0001218  95.7837 264.3294 15.08847070 42298,6917.859,95.437,540.566,538.881,0.0
53416.0,STARLINK-4480,PAYLOAD,2023-05-10 03:20:14,15.08842412,0.0001221,53.216,78.3456,96.685,263.4281,7.2982e-05,8.74e-06,0.0,0 STARLINK-4480,1 53416U 22097AE  23130.13905765  .00000874  00000-0  72982-4 0  9995,2 53416  53.2160  78.3456 0001221  96.6850 263.4281 15.08842412 42446,6917.873,95.437,540.583,538.893,0.0
53416.0,STARLINK-4480,PAYLOAD,2023-05-11 01:35:38,15.08837217,0.0001116,53.2173,74.1864,92.8732,267.2388,3.6491e-05,2.93e-06,0.0,0 STARLINK-4480,1 53416U 22097AE  23131.06642248  .00000293  00000-0  36491-4 0  9992,2 53416  53.2173  74.1864 0001116  92.8732 267.2388 15.08837217 42129,6917.889,95.438,540.526,538.982,0.0
53416.0,STARLINK-4480,PAYLOAD,2023-05-11 03:11:01,15.08844906,0.0001358,53.2178,73.8897,106.4791,253.635,-8.8464e-06,-4.29e-06,0.0,0 STARLINK-4480,1 53416U 22097AE  23131.13265946 -.00000429  00000-0 -88464-5 0  9997,2 53416  53.2178  73.8897 0001358 106.4791 253.6350 15.08844906 42593,6917.865,95.437,540.67,538.791,0.0
53416.0,STARLINK-4480,PAYLOAD,2023-05-12 03:01:49,15.08832266,0.0001366,53.2176,69.4279,110.5938,249.5201,-6.6685e-05,-1.349e-05,0.0,0 STARLINK-4480,1 53416U 22097AE  23132.12627161 -.00001349  00000-0 -66685-4 0  9990,2 53416  53.2176  69.4279 0001366 110.5938 249.5201 15.08832266 42285,6917.904,95.438,540.714,538.824,0.0
53416.0,STARLINK-4480,PAYLOAD,2023-05-12 23:41:50,15.08844588,0.0001341,53.2178,65.5618,119.5062,240.6064,-5.1367e-06,-3.7e-06,0.0,0 STARLINK-4480,1 53416U 22097AE  23132.98738496 -.00000370  00000-0 -51367-5 0  9993,2 53416  53.2178  65.5618 0001341 119.5062 240.6064 15.08844588 42415,6917.866,95.437,540.659,538.804,0.0
53416.0,STARLINK-4480,PAYLOAD,2023-05-13 02:52:36,15.08848151,0.0001179,53.2175,64.9667,111.2965,248.8153,4.619e-05,4.47e-06,0.0,0 STARLINK-4480,1 53416U 22097AE  23133.11986115  .00000447  00000-0  46190-4 0  9992,2 53416  53.2175  64.9667 0001179 111.2965 248.8153 15.08848151 42890,6917.855,95.437,540.536,538.905,0.0
53416.0,STARLINK-4480,PAYLOAD,2023-05-14 02:43:24,15.08835421,0.0001205,53.2183,60.5059,87.943,272.1701,2.7676e-05,1.53e-06,0.0,0 STARLINK-4480,1 53416U 22097AE  23134.11347457  .00000153  00000-0  27676-4 0  9995,2 53416  53.2183  60.5059 0001205  87.9430 272.1701 15.08835421 42583,6917.894,95.438,540.593,538.926,0.0
53416.0,STARLINK-4480,PAYLOAD,2023-05-14 18:37:15,15.08842219,0.0001204,53.2176,57.5302,107.6361,252.4763,-1.2665e-05,-4.89e-06,0.0,0 STARLINK-4480,1 53416U 22097AE  23134.77587191 -.00000489  00000-0 -12665-4 0  9994,2 53416  53.2176  57.5302 0001204 107.6361 252.4763 15.08842219 43149,6917.874,95.437,540.572,538.906,0.0
53416.0,STARLINK-4480,PAYLOAD,2023-05-15 00:58:47,15.08847798,0.0001111,53.2173,56.3432,101.2148,258.8969,4.2387e-06,-2.2e-06,0.0,0 STARLINK-4480,1 53416U 22097AE  23135.04082696 -.00000220  00000-0  42387-5 0  9992,2 53416  53.2173  56.3432 0001111 101.2148 258.8969 15.08847798 42725,6917.857,95.437,540.49,538.953,0.0
53416.0,STARLINK-4480,PAYLOAD,2023-05-15 12:06:29,15.08843497,0.000118,53.2183,54.2588,94.8466,265.2661,-2.6458e-05,-7.09e-06,0.0,0 STARLINK-4480,1 53416U 22097AE  23135.50450801 -.00000709  00000-0 -26458-4 0  9993,2 53416  53.2183  54.2588 0001180  94.8466 265.2661 15.08843497 43253,6917.87,95.437,540.551,538.918,0.0
53416.0,STARLINK-4480,PAYLOAD,2023-05-16 04:00:21,15.08839049,0.0001207,53.2181,51.2849,101.8182,258.2946,2.54e-05,1.16e-06,0.0,0 STARLINK-4480,1 53416U 22097AE  23136.16691144  .00000116  00000-0  25400-4 0  9999,2 53416  53.2181  51.2849 0001207 101.8182 258.2946 15.08839049 42897,6917.883,95.438,540.583,538.913,0.0
53416.0,STARLINK-4480,PAYLOAD,2023-05-16 18:18:49,15.08845003,0.0001165,53.2176,48.6089,100.0114,260.1009,-4.4981e-05,-1.004e-05,0.0,0 STARLINK-4480,1 53416U 22097AE  23136.76307033 -.00001004  00000-0 -44981-4 0  9990,2 53416  53.2176  48.6089 0001165 100.0114 260.1009 15.08845003 43447,6917.865,95.437,540.536,538.924,0.0
53416.0,STARLINK-4480,PAYLOAD,2023-05-17 00:40:21,15.08848822,0.0001171,53.2174,47.42,95.1503,264.9622,-5.5993e-06,-3.77e-06,0.0,0 STARLINK-4480,1 53416U 22097AE  23137.02802549 -.00000377  00000-0 -55993-5 0  9990,2 53416  53.2174  47.4200 0001171  95.1503 264.9622 15.08848822 43029,6917.853,95.437,540.529,538.908,0.0
53416.0,STARLINK-4480,PAYLOAD,2023-05-17 21:20:22,15.08833791,0.0001131,53.2168,43.5547,90.5505,269.5616,9.6528e-06,-1.34e-06,0.0,0 STARLINK-4480,1 53416U 22097AE  23137.88915376 -.00000134  00000-0  96528-5 0  9996,2 53416  53.2168  43.5547 0001131  90.5505 269.5616 15.08833791 43618,6917.899,95.438,540.547,538.982,0.0
53416.0,STARLINK-4480,PAYLOAD,2023-05-18 00:31:08,15.08836708,0.0001097,53.2166,42.9611,80.0146,280.097,4.2271e-05,3.85e-06,0.0,0 STARLINK-4480,1 53416U 22097AE  23138.02163169  .00000385  00000-0  42271-4 0  9990,2 53416  53.2166  42.9611 0001097  80.0146 280.0970 15.08836708 43170,6917.89,95.438,540.514,538.997,0.0
53416.0,STARLINK-4480,PAYLOAD,2023-05-18 03:41:55,15.08838499,0.000108,53.2166,42.3666,80.7575,279.3539,1.815e-05,1e-08,0.0,0 STARLINK-4480,1 53416U 22097AE  23138.15411134  .00000001  00000-0  18150-4 0  9996,2 53416  53.2166  42.3666 0001080  80.7575 279.3539 15.08838499 43653,6917.885,95.438,540.497,539.003,0.0
53416.0,STARLINK-4480,PAYLOAD,2023-05-19 21:01:57,15.0883548,0.0001163,53.2178,34.6358,78.2319,281.8804,-7.27e-08,-2.89e-06,0.0,0 STARLINK-4480,1 53416U 22097AE  23139.87635677 -.00000289  00000-0 -72700-7 0  9990,2 53416  53.2178  34.6358 0001163  78.2319 281.8804 15.08835480 43917,6917.894,95.438,540.564,538.955,0.0
